{"type": "FeatureCollection", "features": [ {"type": "Feature", "properties": {"norad_id": 30121, "name": "FENGYUN 1C DEB", "group": "fengyun-1c-debris", "lat": -76.94804844778452, "lon": 139.80704835921998, "alt_km": 780.7161816591124, "timestamp": "2025-12-26T23:26:42.402874+00:00", "meta": {"OBJECT_NAME": "FENGYUN 1C DEB", "OBJECT_ID": "1999-025SA", "EPOCH": "2025-12-26T00:41:06.925632", "MEAN_MOTION": 14.40157784, "ECCENTRICITY": 0.00302627, "INCLINATION": 102.164, "RA_OF_ASC_NODE": 26.9632, "ARG_OF_PERICENTER": 131.3516, "MEAN_ANOMALY": 259.4445, "EPHEMERIS_TYPE": 0, "CLASSIFICATION_TYPE": "U", "NORAD_CAT_ID": 30121, "ELEMENT_SET_NO": 999, "REV_AT_EPOCH": 97731, "BSTAR": 0.0019311387, "MEAN_MOTION_DOT": 6.066e-05, "MEAN_MOTION_DDOT": 0}, "tle": {"line1": "1 30121U 99025SA  25360.02855238  .00006066  00000+0  19311-2 0  9995", "line2": "2 30121 102.1640  26.9632 0030262 131.3516 259.4445 14.40157784977315"}}, "geometry": {"type": "Point", "coordinates": [139.80704835921998, -76.94804844778452]}}, {"type": "Feature", "properties": {"norad_id": 30123, "name": "FENGYUN 1C DEB", "group": "fengyun-1c-debris", "lat": 34.981742148959796, "lon": -66.39573973149533, "alt_km": 637.6555544990215, "timestamp": "2025-12-26T23:26:42.402883+00:00", "meta": {"OBJECT_NAME": "FENGYUN 1C DEB", "OBJECT_ID": "1999-025SC", "EPOCH": "2025-12-25T15:17:37.225824", "MEAN_MOTION": 14.26107151, "ECCENTRICITY": 0.0230673, "INCLINATION": 96.9277, "RA_OF_ASC_NODE": 297.4229, "ARG_OF_PERICENTER": 45.7788, "MEAN_ANOMALY": 316.2087, "EPHEMERIS_TYPE": 0, "CLASSIFICATION_TYPE": "U", "NORAD_CAT_ID": 30123, "ELEMENT_SET_NO": 999, "REV_AT_EPOCH": 97431, "BSTAR": 0.0022049, "MEAN_MOTION_DOT": 6.952e-05, "MEAN_MOTION_DDOT": 0}, "tle": {"line1": "1 30123U 99025SC  25359.63723641  .00006952  00000+0  22049-2 0  9990", "line2": "2 30123  96.9277 297.4229 0230673  45.7788 316.2087 14.26107151974315"}}, "geometry": {"type": "Point", "coordinates": [-66.39573973149533, 34.981742148959796]}}, {"type": "Feature", "properties": {"norad_id": 30124, "name": "FENGYUN 1C DEB", "group": "fengyun-1c-debris", "lat": 75.44706061615503, "lon": 16.878867894094448, "alt_km": 737.058831604767, "timestamp": "2025-12-26T23:26:42.402892+00:00", "meta": {"OBJECT_NAME": "FENGYUN 1C DEB", "OBJECT_ID": "1999-025SD", "EPOCH": "2025-12-26T02:57:33.033600", "MEAN_MOTION": 14.14276609, "ECCENTRICITY": 0.01425917, "INCLINATION": 99.1304, "RA_OF_ASC_NODE": 54.285, "ARG_OF_PERICENTER": 68.2063, "MEAN_ANOMALY": 346.5634, "EPHEMERIS_TYPE": 0, "CLASSIFICATION_TYPE": "U", "NORAD_CAT_ID": 30124, "ELEMENT_SET_NO": 999, "REV_AT_EPOCH": 97104, "BSTAR": 0.00078294768, "MEAN_MOTION_DOT": 1.603e-05, "MEAN_MOTION_DDOT": 0}, "tle": {"line1": "1 30124U 99025SD  25360.12329900  .00001603  00000+0  78295-3 0  9990", "line2": "2 30124  99.1304  54.2850 0142591  68.2063 346.5634 14.14276609971041"}}, "geometry": {"type": "Point", "coordinates": [16.878867894094448, 75.44706061615503]}}, {"type": "Feature", "properties": {"norad_id": 30125, "name": "FENGYUN 1C DEB", "group": "fengyun-1c-debris", "lat": -55.2654397020945, "lon": 112.46524768793266, "alt_km": 577.5001523046558, "timestamp": "2025-12-26T23:26:42.402901+00:00", "meta": {"OBJECT_NAME": "FENGYUN 1C DEB", "OBJECT_ID": "1999-025SE", "EPOCH": "2025-12-26T12:09:21.154176", "MEAN_MOTION": 14.22718305, "ECCENTRICITY": 0.03414792, "INCLINATION": 98.7229, "RA_OF_ASC_NODE": 99.205, "ARG_OF_PERICENTER": 304.1787, "MEAN_ANOMALY": 111.7317, "EPHEMERIS_TYPE": 0, "CLASSIFICATION_TYPE": "U", "NORAD_CAT_ID": 30125, "ELEMENT_SET_NO": 999, "REV_AT_EPOCH": 97117, "BSTAR": 0.00065735522, "MEAN_MOTION_DOT": 2.628e-05, "MEAN_MOTION_DDOT": 0}, "tle": {"line1": "1 30125U 99025SE  25360.50649484  .00002628  00000+0  65736-3 0  9999", "line2": "2 30125  98.7229  99.2050 0341479 304.1787 111.7317 14.22718305971172"}}, "geometry": {"type": "Point", "coordinates": [112.46524768793266, -55.2654397020945]}}, {"type": "Feature", "properties": {"norad_id": 30127, "name": "FENGYUN 1C DEB", "group": "fengyun-1c-debris", "lat": 59.97648460981143, "lon": -157.60635035272546, "alt_km": 702.7109037297068, "timestamp": "2025-12-26T23:26:42.402910+00:00", "meta": {"OBJECT_NAME": "FENGYUN 1C DEB", "OBJECT_ID": "1999-025SG", "EPOCH": "2025-12-26T03:07:48.948960", "MEAN_MOTION": 14.38179501, "ECCENTRICITY": 0.00859474, "INCLINATION": 98.2064, "RA_OF_ASC_NODE": 216.0454, "ARG_OF_PERICENTER": 39.0779, "MEAN_ANOMALY": 321.6576, "EPHEMERIS_TYPE": 0, "CLASSIFICATION_TYPE": "U", "NORAD_CAT_ID": 30127, "ELEMENT_SET_NO": 999, "REV_AT_EPOCH": 97428, "BSTAR": 0.0023175369, "MEAN_MOTION_DOT": 7.307e-05, "MEAN_MOTION_DDOT": 0}, "tle": {"line1": "1 30127U 99025SG  25360.13042765  .00007307  00000+0  23175-2 0  9998", "line2": "2 30127  98.2064 216.0454 0085947  39.0779 321.6576 14.38179501974283"}}, "geometry": {"type": "Point", "coordinates": [-157.60635035272546, 59.97648460981143]}}, {"type": "Feature", "properties": {"norad_id": 30128, "name": "FENGYUN 1C DEB", "group": "fengyun-1c-debris", "lat": 82.10897404181121, "lon": -120.65050286625646, "alt_km": 655.6444310488341, "timestamp": "2025-12-26T23:26:42.402919+00:00", "meta": {"OBJECT_NAME": "FENGYUN 1C DEB", "OBJECT_ID": "1999-025SH", "EPOCH": "2025-12-25T22:23:18.364416", "MEAN_MOTION": 14.4634022, "ECCENTRICITY": 0.0107525, "INCLINATION": 96.9807, "RA_OF_ASC_NODE": 356.3612, "ARG_OF_PERICENTER": 83.5503, "MEAN_ANOMALY": 337.0118, "EPHEMERIS_TYPE": 0, "CLASSIFICATION_TYPE": "U", "NORAD_CAT_ID": 30128, "ELEMENT_SET_NO": 999, "REV_AT_EPOCH": 97502, "BSTAR": 0.0026151, "MEAN_MOTION_DOT": 0.00010058, "MEAN_MOTION_DDOT": 0}, "tle": {"line1": "1 30128U 99025SH  25359.93285144  .00010058  00000+0  26151-2 0  9999", "line2": "2 30128  96.9807 356.3612 0107525  83.5503 337.0118 14.46340220975027"}}, "geometry": {"type": "Point", "coordinates": [-120.65050286625646, 82.10897404181121]}}, {"type": "Feature", "properties": {"norad_id": 30129, "name": "FENGYUN 1C DEB", "group": "fengyun-1c-debris", "lat": -73.66145202408174, "lon": -30.069895527880888, "alt_km": 977.6911533640041, "timestamp": "2025-12-26T23:26:42.402928+00:00", "meta": {"OBJECT_NAME": "FENGYUN 1C DEB", "OBJECT_ID": "1999-025SJ", "EPOCH": "2025-12-26T07:23:05.916768", "MEAN_MOTION": 14.01607687, "ECCENTRICITY": 0.0188215, "INCLINATION": 98.0312, "RA_OF_ASC_NODE": 300.5497, "ARG_OF_PERICENTER": 53.9807, "MEAN_ANOMALY": 97.447, "EPHEMERIS_TYPE": 0, "CLASSIFICATION_TYPE": "U", "NORAD_CAT_ID": 30129, "ELEMENT_SET_NO": 999, "REV_AT_EPOCH": 96668, "BSTAR": 0.00071032146, "MEAN_MOTION_DOT": 1.221e-05, "MEAN_MOTION_DDOT": 0}, "tle": {"line1": "1 30129U 99025SJ  25360.30770737  .00001221  00000+0  71032-3 0  9991", "line2": "2 30129  98.0312 300.5497 0188215  53.9807  97.4470 14.01607687966681"}}, "geometry": {"type": "Point", "coordinates": [-30.069895527880888, -73.66145202408174]}}, {"type": "Feature", "properties": {"norad_id": 30131, "name": "FENGYUN 1C DEB", "group": "fengyun-1c-debris", "lat": -73.20341704890417, "lon": 125.1670671031171, "alt_km": 885.0065946708828, "timestamp": "2025-12-26T23:26:42.402938+00:00", "meta": {"OBJECT_NAME": "FENGYUN 1C DEB", "OBJECT_ID": "1999-025SL", "EPOCH": "2025-12-26T05:28:34.483296", "MEAN_MOTION": 14.21326623, "ECCENTRICITY": 0.00817149, "INCLINATION": 99.0737, "RA_OF_ASC_NODE": 92.4321, "ARG_OF_PERICENTER": 121.0019, "MEAN_ANOMALY": 294.1659, "EPHEMERIS_TYPE": 0, "CLASSIFICATION_TYPE": "U", "NORAD_CAT_ID": 30131, "ELEMENT_SET_NO": 999, "REV_AT_EPOCH": 96880, "BSTAR": 0.0022776887, "MEAN_MOTION_DOT": 5.096e-05, "MEAN_MOTION_DDOT": 0}, "tle": {"line1": "1 30131U 99025SL  25360.22817689  .00005096  00000+0  22777-2 0  9998", "line2": "2 30131  99.0737  92.4321 0081714 121.0019 294.1659 14.21326623968808"}}, "geometry": {"type": "Point", "coordinates": [125.1670671031171, -73.20341704890417]}}, {"type": "Feature", "properties": {"norad_id": 30132, "name": "FENGYUN 1C DEB", "group": "fengyun-1c-debris", "lat": 3.001010819171147, "lon": -45.41265154323083, "alt_km": 837.9945733953282, "timestamp": "2025-12-26T23:26:42.402947+00:00", "meta": {"OBJECT_NAME": "FENGYUN 1C DEB", "OBJECT_ID": "1999-025SM", "EPOCH": "2025-12-26T08:43:11.635968", "MEAN_MOTION": 13.94868696, "ECCENTRICITY": 0.01054778, "INCLINATION": 99.5795, "RA_OF_ASC_NODE": 314.458, "ARG_OF_PERICENTER": 13.3333, "MEAN_ANOMALY": 150.6923, "EPHEMERIS_TYPE": 0, "CLASSIFICATION_TYPE": "U", "NORAD_CAT_ID": 30132, "ELEMENT_SET_NO": 999, "REV_AT_EPOCH": 96279, "BSTAR": 0.00047893552, "MEAN_MOTION_DOT": 6.26e-06, "MEAN_MOTION_DDOT": 0}, "tle": {"line1": "1 30132U 99025SM  25360.36332912  .00000626  00000+0  47894-3 0  9997", "line2": "2 30132  99.5795 314.4580 0105477  13.3333 150.6923 13.94868696962799"}}, "geometry": {"type": "Point", "coordinates": [-45.41265154323083, 3.001010819171147]}}, {"type": "Feature", "properties": {"norad_id": 30133, "name": "FENGYUN 1C DEB", "group": "fengyun-1c-debris", "lat": 47.22823742832209, "lon": -4.350422699109369, "alt_km": 863.7384537496664, "timestamp": "2025-12-26T23:26:42.402977+00:00", "meta": {"OBJECT_NAME": "FENGYUN 1C DEB", "OBJECT_ID": "1999-025SN", "EPOCH": "2025-12-26T11:10:46.078176", "MEAN_MOTION": 14.06739598, "ECCENTRICITY": 0.00859504, "INCLINATION": 98.3251, "RA_OF_ASC_NODE": 166.072, "ARG_OF_PERICENTER": 221.605, "MEAN_ANOMALY": 204.6819, "EPHEMERIS_TYPE": 0, "CLASSIFICATION_TYPE": "U", "NORAD_CAT_ID": 30133, "ELEMENT_SET_NO": 999, "REV_AT_EPOCH": 96571, "BSTAR": 0.0016635947, "MEAN_MOTION_DOT": 2.819e-05, "MEAN_MOTION_DDOT": 0}, "tle": {"line1": "1 30133U 99025SN  25360.46581109  .00002819  00000+0  16636-2 0  9998", "line2": "2 30133  98.3251 166.0720 0085950 221.6050 204.6819 14.06739598965715"}}, "geometry": {"type": "Point", "coordinates": [-4.350422699109369, 47.22823742832209]}}]}